[{"OBJECT_NAME":"NANOSATC-BR1","OBJECT_ID":"2014-033Q","EPOCH":"2026-03-09T23:35:03.168384","MEAN_MOTION":15.28136801,"ECCENTRICITY":0.00046435,"INCLINATION":98.0845,"RA_OF_ASC_NODE":92.7804,"ARG_OF_PERICENTER":147.6715,"MEAN_ANOMALY":212.4808,"EPHEMERIS_TYPE":0,"CLASSIFICATION_TYPE":"U","NORAD_CAT_ID":40024,"ELEMENT_SET_NO":999,"REV_AT_EPOCH":63881,"BSTAR":0.00074295057,"MEAN_MOTION_DOT":0.00020336,"MEAN_MOTION_DDOT":0},{"OBJECT_NAME":"STARLINK-35888","OBJECT_ID":"2025-303AD","EPOCH":"2026-03-09T01:01:27.560640","MEAN_MOTION":15.27564498,"ECCENTRICITY":7.004e-5,"INCLINATION":42.994,"RA_OF_ASC_NODE":314.5842,"ARG_OF_PERICENTER":284.7454,"MEAN_ANOMALY":75.332,"EPHEMERIS_TYPE":0,"CLASSIFICATION_TYPE":"U","NORAD_CAT_ID":67190,"ELEMENT_SET_NO":999,"REV_AT_EPOCH":1263,"BSTAR":0.0012225527,"MEAN_MOTION_DOT":0.00033517,"MEAN_MOTION_DDOT":0}]
